[{"OBJECT_NAME":"OBJECT H","OBJECT_ID":"2025-155H","EPOCH":"2026-03-09T22:09:58.611456","MEAN_MOTION":15.27590961,"ECCENTRICITY":0.00081993,"INCLINATION":97.4482,"RA_OF_ASC_NODE":37.3122,"ARG_OF_PERICENTER":152.0629,"MEAN_ANOMALY":208.1051,"EPHEMERIS_TYPE":0,"CLASSIFICATION_TYPE":"U","NORAD_CAT_ID":64883,"ELEMENT_SET_NO":999,"REV_AT_EPOCH":6559,"BSTAR":0.00050403256,"MEAN_MOTION_DOT":0.00013547,"MEAN_MOTION_DDOT":0},{"OBJECT_NAME":"STARLINK-36493","OBJECT_ID":"2026-008M","EPOCH":"2026-03-09T10:13:50.995488","MEAN_MOTION":15.27594532,"ECCENTRICITY":0.00022072,"INCLINATION":43.0004,"RA_OF_ASC_NODE":206.5646,"ARG_OF_PERICENTER":280.1015,"MEAN_ANOMALY":79.9588,"EPHEMERIS_TYPE":0,"CLASSIFICATION_TYPE":"U","NORAD_CAT_ID":67456,"ELEMENT_SET_NO":999,"REV_AT_EPOCH":953,"BSTAR":0.0012998221,"MEAN_MOTION_DOT":0.00035696,"MEAN_MOTION_DDOT":0}]
